STARLINK-2006
1 27601C 21009BF  21325.16773426 -.00012101  00000-0 -81094-3 0  3254
2 27601  53.0536 207.4739 0001920  70.2798 138.7046 15.06401744    11
